{"type": "FeatureCollection", "features": [ {"type": "Feature", "properties": {"norad_id": 17070, "name": "POLAR BEAR", "group": "nnss", "lat": -62.16650794001378, "lon": -176.4873160707022, "alt_km": 1012.1433302490805, "timestamp": "2025-12-01T03:58:49.236336+00:00", "meta": {"OBJECT_NAME": "POLAR BEAR", "OBJECT_ID": "1986-088A", "EPOCH": "2025-11-30T19:36:21.773088", "MEAN_MOTION": 13.75246998, "ECCENTRICITY": 0.0040054, "INCLINATION": 89.6182, "RA_OF_ASC_NODE": 184.2503, "ARG_OF_PERICENTER": 154.0542, "MEAN_ANOMALY": 217.1156, "EPHEMERIS_TYPE": 0, "CLASSIFICATION_TYPE": "U", "NORAD_CAT_ID": 17070, "ELEMENT_SET_NO": 999, "REV_AT_EPOCH": 95815, "BSTAR": 0.00010881, "MEAN_MOTION_DOT": 1.16e-06, "MEAN_MOTION_DDOT": 0, "GROUP": "nnss"}, "tle": {"line1": "1 17070U 86088A   25334.81691867  .00000116  00000+0  10881-3 0  9996", "line2": "2 17070  89.6182 184.2503 0040054 154.0542 217.1156 13.75246998958153"}}, "geometry": {"type": "Point", "coordinates": [-176.4873160707022, -62.16650794001378]}}, {"type": "Feature", "properties": {"norad_id": 18361, "name": "OSCAR 27", "group": "nnss", "lat": 18.525391411921635, "lon": 78.71378871124995, "alt_km": 1130.3346855855452, "timestamp": "2025-12-01T03:58:49.236347+00:00", "meta": {"OBJECT_NAME": "OSCAR 27", "OBJECT_ID": "1987-080A", "EPOCH": "2025-11-30T18:57:35.757216", "MEAN_MOTION": 13.44902745, "ECCENTRICITY": 0.0102218, "INCLINATION": 90.3742, "RA_OF_ASC_NODE": 78.8252, "ARG_OF_PERICENTER": 258.5009, "MEAN_ANOMALY": 100.4647, "EPHEMERIS_TYPE": 0, "CLASSIFICATION_TYPE": "U", "NORAD_CAT_ID": 18361, "ELEMENT_SET_NO": 999, "REV_AT_EPOCH": 87396, "BSTAR": 0.00016548, "MEAN_MOTION_DOT": 1.07e-06, "MEAN_MOTION_DDOT": 0, "GROUP": "nnss"}, "tle": {"line1": "1 18361U 87080A   25334.78999719  .00000107  00000+0  16548-3 0  9992", "line2": "2 18361  90.3742  78.8252 0102218 258.5009 100.4647 13.44902745873965"}}, "geometry": {"type": "Point", "coordinates": [78.71378871124995, 18.525391411921635]}}, {"type": "Feature", "properties": {"norad_id": 18362, "name": "OSCAR 29", "group": "nnss", "lat": 49.73841565067545, "lon": 78.85357257688327, "alt_km": 1136.4660573641768, "timestamp": "2025-12-01T03:58:49.236357+00:00", "meta": {"OBJECT_NAME": "OSCAR 29", "OBJECT_ID": "1987-080B", "EPOCH": "2025-11-30T19:23:19.471200", "MEAN_MOTION": 13.44445, "ECCENTRICITY": 0.010364, "INCLINATION": 90.3755, "RA_OF_ASC_NODE": 79.2838, "ARG_OF_PERICENTER": 281.9002, "MEAN_ANOMALY": 195.3641, "EPHEMERIS_TYPE": 0, "CLASSIFICATION_TYPE": "U", "NORAD_CAT_ID": 18362, "ELEMENT_SET_NO": 999, "REV_AT_EPOCH": 87349, "BSTAR": 0.00014545, "MEAN_MOTION_DOT": 9.4e-07, "MEAN_MOTION_DDOT": 0, "GROUP": "nnss"}, "tle": {"line1": "1 18362U 87080B   25334.80786425  .00000094  00000+0  14545-3 0  9994", "line2": "2 18362  90.3755  79.2838 0103640 281.9002 195.3641 13.44445000873499"}}, "geometry": {"type": "Point", "coordinates": [78.85357257688327, 49.73841565067545]}}, {"type": "Feature", "properties": {"norad_id": 19070, "name": "OSCAR 23", "group": "nnss", "lat": 24.179411503817434, "lon": -163.8217007285231, "alt_km": 1074.1317608851186, "timestamp": "2025-12-01T03:58:49.236367+00:00", "meta": {"OBJECT_NAME": "OSCAR 23", "OBJECT_ID": "1988-033A", "EPOCH": "2025-11-30T20:50:00.118752", "MEAN_MOTION": 13.27784385, "ECCENTRICITY": 0.0188559, "INCLINATION": 90.3227, "RA_OF_ASC_NODE": 16.024, "ARG_OF_PERICENTER": 212.9941, "MEAN_ANOMALY": 321.8943, "EPHEMERIS_TYPE": 0, "CLASSIFICATION_TYPE": "U", "NORAD_CAT_ID": 19070, "ELEMENT_SET_NO": 999, "REV_AT_EPOCH": 82095, "BSTAR": 0.00016101, "MEAN_MOTION_DOT": 8.7e-07, "MEAN_MOTION_DDOT": 0, "GROUP": "nnss"}, "tle": {"line1": "1 19070U 88033A   25334.86805693  .00000087  00000+0  16101-3 0  9997", "line2": "2 19070  90.3227  16.0240 0188559 212.9941 321.8943 13.27784385820951"}}, "geometry": {"type": "Point", "coordinates": [-163.8217007285231, 24.179411503817434]}}, {"type": "Feature", "properties": {"norad_id": 19071, "name": "OSCAR 32", "group": "nnss", "lat": -82.79243410461287, "lon": -166.39333628492892, "alt_km": 1097.5299228018303, "timestamp": "2025-12-01T03:58:49.236378+00:00", "meta": {"OBJECT_NAME": "OSCAR 32", "OBJECT_ID": "1988-033B", "EPOCH": "2025-11-30T16:25:22.351008", "MEAN_MOTION": 13.27951389, "ECCENTRICITY": 0.0187358, "INCLINATION": 90.3232, "RA_OF_ASC_NODE": 16.1496, "ARG_OF_PERICENTER": 200.3285, "MEAN_ANOMALY": 279.7179, "EPHEMERIS_TYPE": 0, "CLASSIFICATION_TYPE": "U", "NORAD_CAT_ID": 19071, "ELEMENT_SET_NO": 999, "REV_AT_EPOCH": 82105, "BSTAR": 0.00013916, "MEAN_MOTION_DOT": 7.7e-07, "MEAN_MOTION_DDOT": 0, "GROUP": "nnss"}, "tle": {"line1": "1 19071U 88033B   25334.68428647  .00000077  00000+0  13916-3 0  9998", "line2": "2 19071  90.3232  16.1496 0187358 200.3285 279.7179 13.27951389821054"}}, "geometry": {"type": "Point", "coordinates": [-166.39333628492892, -82.79243410461287]}}, {"type": "Feature", "properties": {"norad_id": 19223, "name": "NOVA 2", "group": "nnss", "lat": -53.54952645624596, "lon": 78.26924567519507, "alt_km": 1185.2491374217734, "timestamp": "2025-12-01T03:58:49.236390+00:00", "meta": {"OBJECT_NAME": "NOVA 2", "OBJECT_ID": "1988-052A", "EPOCH": "2025-11-30T17:56:31.650720", "MEAN_MOTION": 13.22933672, "ECCENTRICITY": 0.0031525, "INCLINATION": 89.9872, "RA_OF_ASC_NODE": 78.2871, "ARG_OF_PERICENTER": 49.1482, "MEAN_ANOMALY": 66.8979, "EPHEMERIS_TYPE": 0, "CLASSIFICATION_TYPE": "U", "NORAD_CAT_ID": 19223, "ELEMENT_SET_NO": 999, "REV_AT_EPOCH": 80789, "BSTAR": 6.9342e-05, "MEAN_MOTION_DOT": 3.8e-07, "MEAN_MOTION_DDOT": 0, "GROUP": "nnss"}, "tle": {"line1": "1 19223U 88052A   25334.74758855  .00000038  00000+0  69342-4 0  9994", "line2": "2 19223  89.9872  78.2871 0031525  49.1482  66.8979 13.22933672807894"}}, "geometry": {"type": "Point", "coordinates": [78.26924567519507, -53.54952645624596]}}, {"type": "Feature", "properties": {"norad_id": 19419, "name": "OSCAR 25", "group": "nnss", "lat": -76.02123437690055, "lon": 20.350323766220068, "alt_km": 1036.7357138993248, "timestamp": "2025-12-01T03:58:49.236400+00:00", "meta": {"OBJECT_NAME": "OSCAR 25", "OBJECT_ID": "1988-074A", "EPOCH": "2025-11-30T16:26:56.303232", "MEAN_MOTION": 13.42619717, "ECCENTRICITY": 0.0094198, "INCLINATION": 90.036, "RA_OF_ASC_NODE": 20.2039, "ARG_OF_PERICENTER": 280.871, "MEAN_ANOMALY": 202.0885, "EPHEMERIS_TYPE": 0, "CLASSIFICATION_TYPE": "U", "NORAD_CAT_ID": 19419, "ELEMENT_SET_NO": 999, "REV_AT_EPOCH": 82478, "BSTAR": 0.00018915, "MEAN_MOTION_DOT": 1.18e-06, "MEAN_MOTION_DDOT": 0, "GROUP": "nnss"}, "tle": {"line1": "1 19419U 88074A   25334.68537388  .00000118  00000+0  18915-3 0  9992", "line2": "2 19419  90.0360  20.2039 0094198 280.8710 202.0885 13.42619717824782"}}, "geometry": {"type": "Point", "coordinates": [20.350323766220068, -76.02123437690055]}}, {"type": "Feature", "properties": {"norad_id": 19420, "name": "OSCAR 31", "group": "nnss", "lat": 11.616844152280716, "lon": -159.4385549065484, "alt_km": 1118.6708780009822, "timestamp": "2025-12-01T03:58:49.236410+00:00", "meta": {"OBJECT_NAME": "OSCAR 31", "OBJECT_ID": "1988-074B", "EPOCH": "2025-11-30T20:51:22.699008", "MEAN_MOTION": 13.42581538, "ECCENTRICITY": 0.0092411, "INCLINATION": 90.0376, "RA_OF_ASC_NODE": 20.5526, "ARG_OF_PERICENTER": 274.4485, "MEAN_ANOMALY": 261.0047, "EPHEMERIS_TYPE": 0, "CLASSIFICATION_TYPE": "U", "NORAD_CAT_ID": 19420, "ELEMENT_SET_NO": 999, "REV_AT_EPOCH": 82491, "BSTAR": 0.00014514, "MEAN_MOTION_DOT": 9.2e-07, "MEAN_MOTION_DDOT": 0, "GROUP": "nnss"}, "tle": {"line1": "1 19420U 88074B   25334.86901272  .00000092  00000+0  14514-3 0  9993", "line2": "2 19420  90.0376  20.5526 0092411 274.4485 261.0047 13.42581538824918"}}, "geometry": {"type": "Point", "coordinates": [-159.4385549065484, 11.616844152280716]}}]}